[{"OBJECT_NAME":"ICESAT-2","OBJECT_ID":"2018-070A","EPOCH":"2026-03-09T22:54:12.225888","MEAN_MOTION":15.28328617,"ECCENTRICITY":0.00038245,"INCLINATION":91.9993,"RA_OF_ASC_NODE":264.2397,"ARG_OF_PERICENTER":123.8941,"MEAN_ANOMALY":236.2673,"EPHEMERIS_TYPE":0,"CLASSIFICATION_TYPE":"U","NORAD_CAT_ID":43613,"ELEMENT_SET_NO":999,"REV_AT_EPOCH":41730,"BSTAR":0.00014022643,"MEAN_MOTION_DOT":3.87e-5,"MEAN_MOTION_DDOT":0},{"OBJECT_NAME":"STARLINK-31054","OBJECT_ID":"2023-203B","EPOCH":"2026-03-09T01:28:33.805632","MEAN_MOTION":15.27568374,"ECCENTRICITY":0.00011168,"INCLINATION":43.0061,"RA_OF_ASC_NODE":70.7851,"ARG_OF_PERICENTER":265.1004,"MEAN_ANOMALY":94.972,"EPHEMERIS_TYPE":0,"CLASSIFICATION_TYPE":"U","NORAD_CAT_ID":58619,"ELEMENT_SET_NO":999,"REV_AT_EPOCH":12346,"BSTAR":1.1594819e-5,"MEAN_MOTION_DOT":5.7e-7,"MEAN_MOTION_DDOT":0}]
